#dP2019 12  6  0  0  0.00000000      97 __u+U IGS08 FIT  IAC
## 2082 432000.00000000   900.00000000 58823 0.0000000000000
+  113   C01C02C04C05C06C07C08C09C10C11C12C13C14C16C19C20C21
+        C22C23C24C25C26C27C28C29C30C32C33C34C35C36C37E01E02
+        E03E04E05E07E08E09E11E12E13E14E15E18E19E21E24E25E26
+        E27E30E31E33E36G01G02G03G04G05G06G07G08G09G10G11G12
+        G13G14G15G16G17G18G19G20G21G22G23G24G25G26G27G28G29
+        G30G31G32J01J02J03J07R01R02R03R05R07R08R09R11R12R13
+        R14R15R16R17R18R19R20R21R22R23R26  0  0  0  0  0  0
++        13 13 13 12  8  8  8  7  8  7  7  8  7  8  7  7  7
++         7  7  7  7  7  7  7  7  7  7  8  8  8  7  7  4  4
++         4  4  4  4  4  3  4  4  4  4  4  4  4  4  4  4  4
++         4  4  4  4  4  3  3  3  3  3  3  3  3  3  3  3  3
++         3  3  3  3  3  3  3  3  3  3  3  3  3  3  3  3  3
++         3  3  3  8  8  8 13  6  5  5  5  5  5  7  5  5  6
++         5  5  6  5  5  6  6  5  5  5  7  0  0  0  0  0  0
%c M  cc GPS ccc cccc cccc cccc cccc ccccc ccccc ccccc ccccc
%c cc cc ccc ccc cccc cccc cccc cccc ccccc ccccc ccccc ccccc
%f  1.2500000  1.025000000  0.00000000000  0.000000000000000
%f  0.0000000  0.000000000  0.00000000000  0.000000000000000
%i    0    0    0    0      0      0      0      0         0
%i    0    0    0    0      0      0      0      0         0
/* INFORMATION & ANALYSIS CENTER (IAC)            FINAL DATA
/* S/V CLOCKS ARE ALIGNED TO GNSS TIME                      
/* G:C1WC2W R:C1PC2P E:C1XC5X C:C2IC6I J:C1CC2S             
/* PCV:IGS14_2080 OL/AL:FES2004  NONE     YN ORB:CoN CLK:CoN
*  2019 12 06 13 15  0.00000000
PC01 -32262.948137  27151.060318    695.822054    226.664881
PC02   4334.279239  41918.075829  -1080.708176    693.904611
PC04 -39618.276614  14474.235976    283.274529   -427.492659
PC05  21894.119966  35980.958932  -1279.142990   -194.845959
PC06 -11802.281918  37106.620481 -15323.893032    294.547333
PC07 -12819.736286  22817.424242  33237.084261    189.227563
PC08 -25793.500851  27862.278932 -18600.295089    -49.044396
PC09  -2411.626500  41890.638205    224.004132    167.942608
PC10   4582.437494  29032.836056  30538.237356   -435.011564
PC11  -2968.356254  26051.661422  -9580.030061    -44.324421
PC12 -14142.582875  22487.060128   8650.204135    302.996518
PC13 -10638.795588  28656.594680 -29100.074759    142.395470
PC14   7453.177189  23199.365835 -13625.732604    352.912560
PC16  -9677.338686  38639.399639 -13508.593333   -945.423025
PC19 -14820.659390 -22973.722632   5583.796866    263.611515
PC20    603.092248 -19988.363915  19461.402408   -381.446375
PC21 -16136.974472   5022.628190 -22195.046310    128.535621
PC22 -21865.930072 -12645.855017 -11839.231954   -473.334189
PC23  25395.971599   3486.889982  11031.998083   -871.109802
PC24 -11207.082772  16187.600980  19785.678406   -882.156791
PC25  10796.155494  13571.744330  21858.098264   -438.035891
PC26 -25240.436663   9900.683376   6678.899666    486.564907
PC27  17377.032583 -14945.986057 -15939.210063    237.731512
PC28  15022.679531   5156.952850 -22937.574404    228.785850
PC29  -4784.729495 -21967.860122  16528.651087    155.940993
PC30   8700.012769 -26524.206777    156.980169    235.772255
PC32  16131.272754  -5132.207602  22190.902058   -858.399607
PC33  14896.403473  22926.140476  -5627.239888   -641.069561
PC34  -8565.725910  26543.714363   -498.566588   -289.666219
PC35 -15204.374825  -4806.459142  22906.687813   -629.235083
PC36 -10295.219504 -13866.133166 -21892.461376   -882.720659
PC37  25689.343443  -8975.630880  -6124.028278   -857.890981
PE01  23183.982439  -6221.948162 -17310.548769   -746.721410
PE02 -23143.674427   6272.418876  17369.671549     96.836778
PE03 -13723.044274  12034.246046 -23313.475117   -240.866855
PE04   1096.396992 -26932.362954  12228.298157   -419.841143
PE05 -18440.625810 -10092.751504 -20844.561009   -425.146675
PE07  12344.427267  26184.865725   6199.282417   -308.999609
PE08   -706.953861  26995.549782 -12141.260907   6253.066394
PE09 -12533.318965 -26058.637154  -6295.070560   6230.050999
PE11  -6005.432024 -16612.553401  23752.621613    252.858691
PE12  12132.525295 -24363.483513  11654.053390   6064.871982
PE13   5840.195635  16673.276144 -23740.814110    396.102423
PE14  11582.347186  23637.094254 -16295.309981   -820.563730
PE15 -11848.671758  24379.483103 -11887.056035    885.327040
PE18  -1720.442506 -25361.102901   4991.731513   -916.140254
PE19  14566.015641  -9757.720677  23845.192124     -2.567537
PE21  28772.422265   6945.672164    148.215637   -569.843605
PE24 -17423.092596 -16287.138124 -17550.864601   5730.174909
PE25 -28763.281541  -6994.096045   -222.759764   -497.709818
PE26  20344.389824   -794.031428 -21473.043522   3795.033658
PE27  17458.870748  16166.098383  17611.303285    330.753410
PE30  -4223.806246  15864.647656  24627.452882   4327.370018
PE31   4044.617867 -15854.579070 -24654.499519   -470.807418
PE33  22601.578785 -17806.830875  -6931.835449   -471.596309
PE36 -20136.134707    825.599178  21691.074912    627.761554
PG01  -6498.417010  17864.843667 -18612.889654   -220.837657
PG02  21876.093644 -14942.752640    909.705659   -361.001983
PG03   5691.997753  18327.289102 -18459.013589    -48.229910
PG04   1438.055470  26233.014601   3785.820947    -17.243242
PG05  15031.450058  -8145.638556  20235.125576     -4.346266
PG06  23495.357366  -4170.991486 -11645.239064   -145.507725
PG07  11180.599524  11338.375592  21593.737898   -164.123028
PG08  -6282.956780  24014.766228   9159.888722    -15.806318
PG09   7638.834246  23034.054767  10726.667678   -101.386537
PG10 -23975.580556 -10970.722496  -4036.795538   -161.967487
PG11  -4504.862158  23455.695087 -12441.513885   -427.292615
PG12     48.393351 -16898.402165 -20754.048904    176.073149
PG13  12762.234842 -17907.891051  14718.786026    -28.385511
PG14 -15167.351896   4605.470798 -20957.504984    -46.417725
PG15   3789.651328 -24782.974423   7853.824960   -267.611421
PG16 -16623.239923   4614.753365  20127.913303   -100.272739
PG17  13537.205961   7637.392810 -21123.960005    175.890377
PG18 -13602.433351  19182.650131 -12758.436139    104.911981
PG19  15008.277599   -787.438485 -22193.539129   -230.036553
PG20 -21252.801837 -14624.658308   6637.678500    527.607102
PG21 -14097.941669  -9046.734359  21365.133992    -75.055969
PG22  -2303.608320  16159.261597 -20748.438996   -776.063208
PG23   1824.720986  26216.142911   2256.470623   -151.235142
PG24   7635.975534 -19262.816611 -16591.539569     -5.837352
PG25 -14322.681553 -18756.565519 -12661.525193    -17.418114
PG26 -22705.929125  -1269.571317  13871.126977     99.800545
PG27 -12186.452166  15177.580919  17808.725847   -142.053658
PG28  22673.002103  12644.746409  -4671.668222    751.900437
PG29  -4919.643782 -23931.897658  10359.224454     25.600658
PG30  20446.575841   3328.878324  16761.309915    -99.796225
PG31 -24528.486640   5424.100098  -9334.369984     -7.985397
PG32 -14781.247563  -6587.554032 -21022.807373    147.225424
PJ01 -21526.869260  19885.501204 -25739.990278   -328.888000
PJ02 -29603.988974  23351.487881  23648.144863     -0.237531
PJ03 -28582.738005  27123.809446  19999.321109     -8.549650
PJ07 -25385.562711  33669.343764     14.770236     -0.027756
PR01 -10429.342666 -22594.807984   5566.268580     53.709922
PR02 -15808.194837 -13705.748920 -14603.056184    401.141398
PR03 -10782.066684   3156.575957 -22871.974982      6.023315
PR05  11428.831834  22599.445488  -2947.118453     40.721113
PR07  10465.659330  -3791.750203  22975.533431    -30.369489
PR08   -395.115407 -18000.142727  18120.017355     13.980545
PR09  24876.225917   2514.094487   5239.415961    104.838495
PR11   8460.881599 -10477.231652 -21654.595732     17.582128
PR12 -10170.638173  -9966.191428 -21139.919576     85.517069
PR13 -23895.652533  -3601.434883  -8181.423742    -31.896796
PR14 -23262.713471   4502.801891   9448.776342     45.789326
PR15  -9359.084703  10153.621274  21471.355070    105.058646
PR16  10553.337198   9897.176447  20956.277101     -0.293510
PR17 -15777.544043  13897.084558  14489.114431    281.610024
PR18 -12179.170236  22312.382685  -1764.835789     17.024057
PR19  -2746.072801  18864.863474 -16948.035771    -67.557865
PR20  10231.991397   3110.278670 -23148.017226   -398.125687
PR21  15750.813796 -14491.816475 -13846.004178    -89.872726
PR22  10905.182041 -22620.195993   4821.037813     -4.359685
PR23  -1882.022477 -14961.830410  20569.500332    271.428883
PR26   8172.028474   6667.544642 -23210.809378     13.781815
EOF
